[
    {
        "Altitude(m)": 705009.9373902266,
        "Argument of Periapsis(deg)": 0.0034170363559881197,
        "Eccentricity": 0.0,
        "Inclination(deg)": 45.0,
        "Latitude(deg)": 34.27494370860953,
        "Longitude(deg)": -112.53452184373971,
        "Mean Anomaly(deg)": 52.55086499424424,
        "RAAN(deg)": 304.9967744175625,
        "Satellite Name": "Constellation 1 1345",
        "Satellite Number": 1345,
        "Semi-Major Axis(m)": 7083131.272910544,
        "Time(s)": 57
    },
    {
        "Altitude(m)": 705015.9113715307,
        "Argument of Periapsis(deg)": 0.003476984362233526,
        "Eccentricity": 0.0,
        "Inclination(deg)": 45.0,
        "Latitude(deg)": 34.30661157209758,
        "Longitude(deg)": -112.4759595706538,
        "Mean Anomaly(deg)": 52.611566134494126,
        "RAAN(deg)": 304.996717828397,
        "Satellite Name": "Constellation 1 1345",
        "Satellite Number": 1345,
        "Semi-Major Axis(m)": 7083131.272910544,
        "Time(s)": 58
    },
    {
        "Altitude(m)": 705021.8846572202,
        "Argument of Periapsis(deg)": 0.003536932368478932,
        "Eccentricity": 0.0,
        "Inclination(deg)": 45.0,
        "Latitude(deg)": 34.33824719487832,
        "Longitude(deg)": -112.4173504509219,
        "Mean Anomaly(deg)": 52.67226727474401,
        "RAAN(deg)": 304.9966612392314,
        "Satellite Name": "Constellation 1 1345",
        "Satellite Number": 1345,
        "Semi-Major Axis(m)": 7083131.272910544,
        "Time(s)": 59
    },
    {
        "Altitude(m)": 705027.8572089424,
        "Argument of Periapsis(deg)": 0.003596880374724337,
        "Eccentricity": 0.0,
        "Inclination(deg)": 45.0,
        "Latitude(deg)": 34.36985051529719,
        "Longitude(deg)": -112.35869410514785,
        "Mean Anomaly(deg)": 52.73296841499395,
        "RAAN(deg)": 304.9966046500659,
        "Satellite Name": "Constellation 1 1345",
        "Satellite Number": 1345,
        "Semi-Major Axis(m)": 7083131.272910544,
        "Time(s)": 60
    },
    {
        "Altitude(m)": 705033.8289883486,
        "Argument of Periapsis(deg)": 0.0036568283809697427,
        "Eccentricity": 0.0,
        "Inclination(deg)": 45.0,
        "Latitude(deg)": 34.401421471632894,
        "Longitude(deg)": -112.2999906584024,
        "Mean Anomaly(deg)": 52.79366955524383,
        "RAAN(deg)": 304.9965480609003,
        "Satellite Name": "Constellation 1 1345",
        "Satellite Number": 1345,
        "Semi-Major Axis(m)": 7083131.272910544,
        "Time(s)": 61
    },
    {
        "Altitude(m)": 705039.7999571225,
        "Argument of Periapsis(deg)": 0.003716776387215149,
        "Eccentricity": 0.0,
        "Inclination(deg)": 45.0,
        "Latitude(deg)": 34.43296000209697,
        "Longitude(deg)": -112.24124006783708,
        "Mean Anomaly(deg)": 52.85437069549373,
        "RAAN(deg)": 304.99649147173466,
        "Satellite Name": "Constellation 1 1345",
        "Satellite Number": 1345,
        "Semi-Major Axis(m)": 7083131.272910544,
        "Time(s)": 62
    },
    {
        "Altitude(m)": 705045.7700769604,
        "Argument of Periapsis(deg)": 0.003776724393460554,
        "Eccentricity": 0.0,
        "Inclination(deg)": 45.0,
        "Latitude(deg)": 34.464466044834055,
        "Longitude(deg)": -112.1824422907822,
        "Mean Anomaly(deg)": 52.91507183574361,
        "RAAN(deg)": 304.99643488256913,
        "Satellite Name": "Constellation 1 1345",
        "Satellite Number": 1345,
        "Semi-Major Axis(m)": 7083131.272910544,
        "Time(s)": 63
    },
    {
        "Altitude(m)": 705051.7393095809,
        "Argument of Periapsis(deg)": 0.003836672399705959,
        "Eccentricity": 0.0,
        "Inclination(deg)": 45.0,
        "Latitude(deg)": 34.49593953792204,
        "Longitude(deg)": -112.1235972847476,
        "Mean Anomaly(deg)": 52.97577297599355,
        "RAAN(deg)": 304.99637829340355,
        "Satellite Name": "Constellation 1 1345",
        "Satellite Number": 1345,
        "Semi-Major Axis(m)": 7083131.272910544,
        "Time(s)": 64
    },
    {
        "Altitude(m)": 705057.7076167215,
        "Argument of Periapsis(deg)": 0.003896620405951365,
        "Eccentricity": 0.0,
        "Inclination(deg)": 45.0,
        "Latitude(deg)": 34.527380419372214,
        "Longitude(deg)": -112.06470500742476,
        "Mean Anomaly(deg)": 53.03647411624343,
        "RAAN(deg)": 304.996321704238,
        "Satellite Name": "Constellation 1 1345",
        "Satellite Number": 1345,
        "Semi-Major Axis(m)": 7083131.272910544,
        "Time(s)": 65
    },
    {
        "Altitude(m)": 705063.6749601491,
        "Argument of Periapsis(deg)": 0.003956568412196771,
        "Eccentricity": 0.0,
        "Inclination(deg)": 45.0,
        "Latitude(deg)": 34.55878862712937,
        "Longitude(deg)": -112.00576541668698,
        "Mean Anomaly(deg)": 53.097175256493315,
        "RAAN(deg)": 304.99626511507245,
        "Satellite Name": "Constellation 1 1345",
        "Satellite Number": 1345,
        "Semi-Major Axis(m)": 7083131.272910544,
        "Time(s)": 66
    },
    {
        "Altitude(m)": 705069.6413016405,
        "Argument of Periapsis(deg)": 0.004016516418442176,
        "Eccentricity": 0.0,
        "Inclination(deg)": 45.0,
        "Latitude(deg)": 34.59016409907217,
        "Longitude(deg)": -111.94677863868814,
        "Mean Anomaly(deg)": 53.157876396743255,
        "RAAN(deg)": 304.9962085259068,
        "Satellite Name": "Constellation 1 1345",
        "Satellite Number": 1345,
        "Semi-Major Axis(m)": 7083131.272910544,
        "Time(s)": 67
    },
    {
        "Altitude(m)": 705075.6066029968,
        "Argument of Periapsis(deg)": 0.004076464424687581,
        "Eccentricity": 0.0,
        "Inclination(deg)": 45.0,
        "Latitude(deg)": 34.62150677301261,
        "Longitude(deg)": -111.8877442954757,
        "Mean Anomaly(deg)": 53.21857753699314,
        "RAAN(deg)": 304.9961519367413,
        "Satellite Name": "Constellation 1 1345",
        "Satellite Number": 1345,
        "Semi-Major Axis(m)": 7083131.272910544,
        "Time(s)": 68
    },
    {
        "Altitude(m)": 705081.5708260471,
        "Argument of Periapsis(deg)": 0.004136412430932987,
        "Eccentricity": 0.0,
        "Inclination(deg)": 45.0,
        "Latitude(deg)": 34.6528165866972,
        "Longitude(deg)": -111.82866251357386,
        "Mean Anomaly(deg)": 53.279278677243035,
        "RAAN(deg)": 304.9960953475757,
        "Satellite Name": "Constellation 1 1345",
        "Satellite Number": 1345,
        "Semi-Major Axis(m)": 7083131.272910544,
        "Time(s)": 69
    },
    {
        "Altitude(m)": 705087.5339326337,
        "Argument of Periapsis(deg)": 0.004196360437178394,
        "Eccentricity": 0.0,
        "Inclination(deg)": 45.0,
        "Latitude(deg)": 34.68409347780637,
        "Longitude(deg)": -111.76953325159676,
        "Mean Anomaly(deg)": 53.33997981749292,
        "RAAN(deg)": 304.9960387584102,
        "Satellite Name": "Constellation 1 1345",
        "Satellite Number": 1345,
        "Semi-Major Axis(m)": 7083131.272910544,
        "Time(s)": 70
    },
    {
        "Altitude(m)": 705093.4958846212,
        "Argument of Periapsis(deg)": 0.004256308443423799,
        "Eccentricity": 0.0,
        "Inclination(deg)": 45.0,
        "Latitude(deg)": 34.71533738395489,
        "Longitude(deg)": -111.7103564683466,
        "Mean Anomaly(deg)": 53.40068095774285,
        "RAAN(deg)": 304.9959821692446,
        "Satellite Name": "Constellation 1 1345",
        "Satellite Number": 1345,
        "Semi-Major Axis(m)": 7083131.272910544,
        "Time(s)": 71
    },
    {
        "Altitude(m)": 705099.4566439039,
        "Argument of Periapsis(deg)": 0.004316256449669204,
        "Eccentricity": 0.0,
        "Inclination(deg)": 45.0,
        "Latitude(deg)": 34.74654824269198,
        "Longitude(deg)": -111.65113212281503,
        "Mean Anomaly(deg)": 53.46138209799274,
        "RAAN(deg)": 304.99592558007896,
        "Satellite Name": "Constellation 1 1345",
        "Satellite Number": 1345,
        "Semi-Major Axis(m)": 7083131.272910544,
        "Time(s)": 72
    },
    {
        "Altitude(m)": 705105.416172385,
        "Argument of Periapsis(deg)": 0.00437620445591461,
        "Eccentricity": 0.0,
        "Inclination(deg)": 45.0,
        "Latitude(deg)": 34.777725991501406,
        "Longitude(deg)": -111.59186017418403,
        "Mean Anomaly(deg)": 53.52208323824262,
        "RAAN(deg)": 304.99586899091344,
        "Satellite Name": "Constellation 1 1345",
        "Satellite Number": 1345,
        "Semi-Major Axis(m)": 7083131.272910544,
        "Time(s)": 73
    },
    {
        "Altitude(m)": 705111.3744320052,
        "Argument of Periapsis(deg)": 0.004436152462160016,
        "Eccentricity": 0.0,
        "Inclination(deg)": 45.0,
        "Latitude(deg)": 34.808870567801925,
        "Longitude(deg)": -111.53254074992431,
        "Mean Anomaly(deg)": 53.58278437849256,
        "RAAN(deg)": 304.99581240174786,
        "Satellite Name": "Constellation 1 1345",
        "Satellite Number": 1345,
        "Semi-Major Axis(m)": 7083131.272910544,
        "Time(s)": 74
    },
    {
        "Altitude(m)": 705117.3313847168,
        "Argument of Periapsis(deg)": 0.0044961004684054215,
        "Eccentricity": 0.0,
        "Inclination(deg)": 45.0,
        "Latitude(deg)": 34.83998190894676,
        "Longitude(deg)": -111.47317347340893,
        "Mean Anomaly(deg)": 53.643485518742445,
        "RAAN(deg)": 304.9957558125823,
        "Satellite Name": "Constellation 1 1345",
        "Satellite Number": 1345,
        "Semi-Major Axis(m)": 7083131.272910544,
        "Time(s)": 75
    }
]